FENGYUN 4B              
1 48808U 21047A   26061.83864140 -.00000345  00000+0  00000+0 0  9992
2 48808   0.1882  76.8532 0008830 296.4496 193.7569  1.00265698 17509
SXM-8                   
1 48838U 21049A   26061.27197234 -.00000223  00000+0  00000+0 0  9993
2 48838   0.0258  60.0583 0004221 343.6903 129.0399  1.00274439 17525
TIANLIAN 1-05           
1 49011U 21063A   26061.91616514  .00000092  00000+0  00000+0 0  9994
2 49011   1.3196  81.5938 0004686 226.9565 198.7013  1.00270998 17014
STAR ONE D2             
1 49055U 21069A   26061.50292560 -.00000283  00000+0  00000+0 0  9997
2 49055   0.0155 132.8688 0001914 231.1859 267.2912  1.00290841 16861
EUTELSAT QUANTUM        
1 49056U 21069B   26061.52623905  .00000000  00000+0  00000+0 0  9997
2 49056   0.0187 128.2806 0002900 213.5571  55.6294  1.00271278 16853
ZHONGXING-2E            
1 49062U 21071A   26061.10837824 -.00000308  00000+0  00000+0 0  9990
2 49062   0.0222 118.0356 0000198 346.5104 192.3630  1.00267704 16967
TJS-7                   
1 49115U 21077A   26061.56844591 -.00000140  00000+0  00000+0 0  9998
2 49115   0.2326  88.3878 0001706 259.7203 277.3303  1.00269764  8489
CHINASAT 9B             
1 49125U 21080A   26061.89607069 -.00000329  00000+0  00000+0 0  9995
2 49125   0.0358 264.5724 0002164  53.6136 266.4758  1.00272331 16583
SHIYAN-10 01 (SY-10 01) 
1 49258U 21087A   26060.73227222  .00000626  00000+0  00000+0 0  9999
2 49258  63.1005 232.5262 6976338 269.9157  17.0964  2.00627779 32370
SHIJIAN-21 (SJ-21)      
1 49330U 21094A   26061.81760677 -.00000362  00000+0  00000+0 0  9992
2 49330   4.8614  61.7781 0048460 171.6129 349.4972  1.00268672  4298
SES-17                  
1 49332U 21095A   26061.57485928 -.00000289  00000+0  00000+0 0  9999
2 49332   0.0237  63.9843 0001054 272.0224 324.1771  1.00270170 16782
SYRACUSE 4A             
1 49333U 21095B   26061.73973463  .00000119  00000+0  00000+0 0  9995
2 49333   0.0158 145.5451 0001483 203.5509 123.2047  1.00271045 16885
QZS-1R (MICHIBIKI-1R)   
1 49336U 21096A   26060.38447264 -.00000259  00000+0  00000+0 0  9990
2 49336  37.2374  81.1754 0747027 269.6443  80.6815  1.00291836 15925
ATLAS 5 CENTAUR DEB     
1 49340U 18079ER  26059.16574046 -.00000176  00000+0  00000+0 0  9993
2 49340  13.6308  46.9678 4775664 283.0464  29.4098  1.76317741 28985
ATLAS 5 CENTAUR DEB     
1 49341U 18079ES  26059.69623266 -.00000153  00000+0  00000+0 0  9996
2 49341  13.5756  55.8120 4653548 263.4611  43.4668  1.75092634 28805
ATLAS 5 CENTAUR DEB     
1 49343U 18079EU  26061.47854537 -.00000135  00000+0  00000+0 0  9994
2 49343  12.8244  68.8086 4586748 247.6924  58.3996  1.74628901 28769
ATLAS 5 CENTAUR DEB     
1 49351U 18079FC  26059.05863822 -.00000140  00000+0  00000+0 0  9997
2 49351  13.1542  67.2893 4682204 243.4035  61.7407  1.72166119 28326
