[{"OBJECT_NAME":"FENGYUN 4B","OBJECT_ID":"2021-047A","EPOCH":"2026-03-02T20:07:38.616960","MEAN_MOTION":1.00265698,"ECCENTRICITY":0.000883,"INCLINATION":0.1882,"RA_OF_ASC_NODE":76.8532,"ARG_OF_PERICENTER":296.4496,"MEAN_ANOMALY":193.7569,"EPHEMERIS_TYPE":0,"CLASSIFICATION_TYPE":"U","NORAD_CAT_ID":48808,"ELEMENT_SET_NO":999,"REV_AT_EPOCH":1750,"BSTAR":0,"MEAN_MOTION_DOT":-3.45e-6,"MEAN_MOTION_DDOT":0},{"OBJECT_NAME":"SXM-8","OBJECT_ID":"2021-049A","EPOCH":"2026-03-02T06:31:38.410176","MEAN_MOTION":1.00274439,"ECCENTRICITY":0.0004221,"INCLINATION":0.0258,"RA_OF_ASC_NODE":60.0583,"ARG_OF_PERICENTER":343.6903,"MEAN_ANOMALY":129.0399,"EPHEMERIS_TYPE":0,"CLASSIFICATION_TYPE":"U","NORAD_CAT_ID":48838,"ELEMENT_SET_NO":999,"REV_AT_EPOCH":1752,"BSTAR":0,"MEAN_MOTION_DOT":-2.23e-6,"MEAN_MOTION_DDOT":0},{"OBJECT_NAME":"TIANLIAN 1-05","OBJECT_ID":"2021-063A","EPOCH":"2026-03-02T21:59:16.668096","MEAN_MOTION":1.00270998,"ECCENTRICITY":0.0004686,"INCLINATION":1.3196,"RA_OF_ASC_NODE":81.5938,"ARG_OF_PERICENTER":226.9565,"MEAN_ANOMALY":198.7013,"EPHEMERIS_TYPE":0,"CLASSIFICATION_TYPE":"U","NORAD_CAT_ID":49011,"ELEMENT_SET_NO":999,"REV_AT_EPOCH":1701,"BSTAR":0,"MEAN_MOTION_DOT":9.2e-7,"MEAN_MOTION_DDOT":0},{"OBJECT_NAME":"STAR ONE D2","OBJECT_ID":"2021-069A","EPOCH":"2026-03-02T12:04:12.771840","MEAN_MOTION":1.00290841,"ECCENTRICITY":0.0001914,"INCLINATION":0.0155,"RA_OF_ASC_NODE":132.8688,"ARG_OF_PERICENTER":231.1859,"MEAN_ANOMALY":267.2912,"EPHEMERIS_TYPE":0,"CLASSIFICATION_TYPE":"U","NORAD_CAT_ID":49055,"ELEMENT_SET_NO":999,"REV_AT_EPOCH":1686,"BSTAR":0,"MEAN_MOTION_DOT":-2.83e-6,"MEAN_MOTION_DDOT":0},{"OBJECT_NAME":"EUTELSAT QUANTUM","OBJECT_ID":"2021-069B","EPOCH":"2026-03-02T12:37:47.053920","MEAN_MOTION":1.00271278,"ECCENTRICITY":0.00029,"INCLINATION":0.0187,"RA_OF_ASC_NODE":128.2806,"ARG_OF_PERICENTER":213.5571,"MEAN_ANOMALY":55.6294,"EPHEMERIS_TYPE":0,"CLASSIFICATION_TYPE":"U","NORAD_CAT_ID":49056,"ELEMENT_SET_NO":999,"REV_AT_EPOCH":1685,"BSTAR":0,"MEAN_MOTION_DOT":0,"MEAN_MOTION_DDOT":0},{"OBJECT_NAME":"ZHONGXING-2E","OBJECT_ID":"2021-071A","EPOCH":"2026-03-02T02:36:03.879936","MEAN_MOTION":1.00267704,"ECCENTRICITY":1.989e-5,"INCLINATION":0.0222,"RA_OF_ASC_NODE":118.0356,"ARG_OF_PERICENTER":346.5104,"MEAN_ANOMALY":192.363,"EPHEMERIS_TYPE":0,"CLASSIFICATION_TYPE":"U","NORAD_CAT_ID":49062,"ELEMENT_SET_NO":999,"REV_AT_EPOCH":1696,"BSTAR":0,"MEAN_MOTION_DOT":-3.08e-6,"MEAN_MOTION_DDOT":0},{"OBJECT_NAME":"TJS-7","OBJECT_ID":"2021-077A","EPOCH":"2026-03-02T13:38:33.726624","MEAN_MOTION":1.00269764,"ECCENTRICITY":0.0001706,"INCLINATION":0.2326,"RA_OF_ASC_NODE":88.3878,"ARG_OF_PERICENTER":259.7203,"MEAN_ANOMALY":277.3303,"EPHEMERIS_TYPE":0,"CLASSIFICATION_TYPE":"U","NORAD_CAT_ID":49115,"ELEMENT_SET_NO":999,"REV_AT_EPOCH":848,"BSTAR":0,"MEAN_MOTION_DOT":-1.4e-6,"MEAN_MOTION_DDOT":0},{"OBJECT_NAME":"CHINASAT 9B","OBJECT_ID":"2021-080A","EPOCH":"2026-03-02T21:30:20.507616","MEAN_MOTION":1.00272331,"ECCENTRICITY":0.0002164,"INCLINATION":0.0358,"RA_OF_ASC_NODE":264.5724,"ARG_OF_PERICENTER":53.6136,"MEAN_ANOMALY":266.4758,"EPHEMERIS_TYPE":0,"CLASSIFICATION_TYPE":"U","NORAD_CAT_ID":49125,"ELEMENT_SET_NO":999,"REV_AT_EPOCH":1658,"BSTAR":0,"MEAN_MOTION_DOT":-3.29e-6,"MEAN_MOTION_DDOT":0},{"OBJECT_NAME":"SHIYAN-10 01 (SY-10 01)","OBJECT_ID":"2021-087A","EPOCH":"2026-03-01T17:34:28.319808","MEAN_MOTION":2.00627779,"ECCENTRICITY":0.69763387,"INCLINATION":63.1005,"RA_OF_ASC_NODE":232.5262,"ARG_OF_PERICENTER":269.9157,"MEAN_ANOMALY":17.0964,"EPHEMERIS_TYPE":0,"CLASSIFICATION_TYPE":"U","NORAD_CAT_ID":49258,"ELEMENT_SET_NO":999,"REV_AT_EPOCH":3237,"BSTAR":0,"MEAN_MOTION_DOT":6.26e-6,"MEAN_MOTION_DDOT":0},{"OBJECT_NAME":"SHIJIAN-21 (SJ-21)","OBJECT_ID":"2021-094A","EPOCH":"2026-03-02T19:37:21.224928","MEAN_MOTION":1.00268672,"ECCENTRICITY":0.004846,"INCLINATION":4.8614,"RA_OF_ASC_NODE":61.7781,"ARG_OF_PERICENTER":171.6129,"MEAN_ANOMALY":349.4972,"EPHEMERIS_TYPE":0,"CLASSIFICATION_TYPE":"U","NORAD_CAT_ID":49330,"ELEMENT_SET_NO":999,"REV_AT_EPOCH":429,"BSTAR":0,"MEAN_MOTION_DOT":-3.62e-6,"MEAN_MOTION_DDOT":0},{"OBJECT_NAME":"SES-17","OBJECT_ID":"2021-095A","EPOCH":"2026-03-02T13:47:47.841792","MEAN_MOTION":1.0027017,"ECCENTRICITY":0.0001054,"INCLINATION":0.0237,"RA_OF_ASC_NODE":63.9843,"ARG_OF_PERICENTER":272.0224,"MEAN_ANOMALY":324.1771,"EPHEMERIS_TYPE":0,"CLASSIFICATION_TYPE":"U","NORAD_CAT_ID":49332,"ELEMENT_SET_NO":999,"REV_AT_EPOCH":1678,"BSTAR":0,"MEAN_MOTION_DOT":-2.89e-6,"MEAN_MOTION_DDOT":0},{"OBJECT_NAME":"SYRACUSE 4A","OBJECT_ID":"2021-095B","EPOCH":"2026-03-02T17:45:13.072032","MEAN_MOTION":1.00271045,"ECCENTRICITY":0.0001483,"INCLINATION":0.0158,"RA_OF_ASC_NODE":145.5451,"ARG_OF_PERICENTER":203.5509,"MEAN_ANOMALY":123.2047,"EPHEMERIS_TYPE":0,"CLASSIFICATION_TYPE":"U","NORAD_CAT_ID":49333,"ELEMENT_SET_NO":999,"REV_AT_EPOCH":1688,"BSTAR":0,"MEAN_MOTION_DOT":1.19e-6,"MEAN_MOTION_DDOT":0},{"OBJECT_NAME":"QZS-1R (MICHIBIKI-1R)","OBJECT_ID":"2021-096A","EPOCH":"2026-03-01T09:13:38.436096","MEAN_MOTION":1.00291836,"ECCENTRICITY":0.07470272,"INCLINATION":37.2374,"RA_OF_ASC_NODE":81.1754,"ARG_OF_PERICENTER":269.6443,"MEAN_ANOMALY":80.6815,"EPHEMERIS_TYPE":0,"CLASSIFICATION_TYPE":"U","NORAD_CAT_ID":49336,"ELEMENT_SET_NO":999,"REV_AT_EPOCH":1592,"BSTAR":0,"MEAN_MOTION_DOT":-2.59e-6,"MEAN_MOTION_DDOT":0},{"OBJECT_NAME":"ATLAS 5 CENTAUR DEB","OBJECT_ID":"2018-079ER","EPOCH":"2026-02-28T03:58:39.975744","MEAN_MOTION":1.76317741,"ECCENTRICITY":0.47756641,"INCLINATION":13.6308,"RA_OF_ASC_NODE":46.9678,"ARG_OF_PERICENTER":283.0464,"MEAN_ANOMALY":29.4098,"EPHEMERIS_TYPE":0,"CLASSIFICATION_TYPE":"U","NORAD_CAT_ID":49340,"ELEMENT_SET_NO":999,"REV_AT_EPOCH":2898,"BSTAR":0,"MEAN_MOTION_DOT":-1.76e-6,"MEAN_MOTION_DDOT":0},{"OBJECT_NAME":"ATLAS 5 CENTAUR DEB","OBJECT_ID":"2018-079ES","EPOCH":"2026-02-28T16:42:34.501824","MEAN_MOTION":1.75092634,"ECCENTRICITY":0.4653548,"INCLINATION":13.5756,"RA_OF_ASC_NODE":55.812,"ARG_OF_PERICENTER":263.4611,"MEAN_ANOMALY":43.4668,"EPHEMERIS_TYPE":0,"CLASSIFICATION_TYPE":"U","NORAD_CAT_ID":49341,"ELEMENT_SET_NO":999,"REV_AT_EPOCH":2880,"BSTAR":0,"MEAN_MOTION_DOT":-1.53e-6,"MEAN_MOTION_DDOT":0},{"OBJECT_NAME":"ATLAS 5 CENTAUR DEB","OBJECT_ID":"2018-079EU","EPOCH":"2026-03-02T11:29:06.319968","MEAN_MOTION":1.74628901,"ECCENTRICITY":0.4586748,"INCLINATION":12.8244,"RA_OF_ASC_NODE":68.8086,"ARG_OF_PERICENTER":247.6924,"MEAN_ANOMALY":58.3996,"EPHEMERIS_TYPE":0,"CLASSIFICATION_TYPE":"U","NORAD_CAT_ID":49343,"ELEMENT_SET_NO":999,"REV_AT_EPOCH":2876,"BSTAR":0,"MEAN_MOTION_DOT":-1.35e-6,"MEAN_MOTION_DDOT":0},{"OBJECT_NAME":"ATLAS 5 CENTAUR DEB","OBJECT_ID":"2018-079FC","EPOCH":"2026-02-28T01:24:26.342208","MEAN_MOTION":1.72166119,"ECCENTRICITY":0.46822042,"INCLINATION":13.1542,"RA_OF_ASC_NODE":67.2893,"ARG_OF_PERICENTER":243.4035,"MEAN_ANOMALY":61.7407,"EPHEMERIS_TYPE":0,"CLASSIFICATION_TYPE":"U","NORAD_CAT_ID":49351,"ELEMENT_SET_NO":999,"REV_AT_EPOCH":2832,"BSTAR":0,"MEAN_MOTION_DOT":-1.4e-6,"MEAN_MOTION_DDOT":0}]
